[{"OBJECT_NAME":"STARLINK-37175","OBJECT_ID":"2026-063X","EPOCH":"2026-04-17T21:32:11.766624","MEAN_MOTION":15.75233117,"ECCENTRICITY":0.00011986,"INCLINATION":97.2854,"RA_OF_ASC_NODE":249.6122,"ARG_OF_PERICENTER":90.0489,"MEAN_ANOMALY":270.0913,"EPHEMERIS_TYPE":0,"CLASSIFICATION_TYPE":"U","NORAD_CAT_ID":68401,"ELEMENT_SET_NO":999,"REV_AT_EPOCH":381,"BSTAR":0.0012605394,"MEAN_MOTION_DOT":0.00192546,"MEAN_MOTION_DDOT":0},{"OBJECT_NAME":"STARLINK-36360","OBJECT_ID":"2026-063Y","EPOCH":"2026-04-20T06:00:02.000160","MEAN_MOTION":15.75184333,"ECCENTRICITY":0.00013197,"INCLINATION":97.2849,"RA_OF_ASC_NODE":252.1328,"ARG_OF_PERICENTER":106.091,"MEAN_ANOMALY":28.1544,"EPHEMERIS_TYPE":0,"CLASSIFICATION_TYPE":"U","NORAD_CAT_ID":68402,"ELEMENT_SET_NO":999,"REV_AT_EPOCH":514,"BSTAR":-0.00019833585,"MEAN_MOTION_DOT":-0.00029603,"MEAN_MOTION_DDOT":0},{"OBJECT_NAME":"STARLINK-37218","OBJECT_ID":"2026-063Z","EPOCH":"2026-04-17T19:28:25.418784","MEAN_MOTION":15.80874597,"ECCENTRICITY":0.00014133,"INCLINATION":97.2848,"RA_OF_ASC_NODE":249.5771,"ARG_OF_PERICENTER":66.6098,"MEAN_ANOMALY":293.5319,"EPHEMERIS_TYPE":0,"CLASSIFICATION_TYPE":"U","NORAD_CAT_ID":68403,"ELEMENT_SET_NO":999,"REV_AT_EPOCH":380,"BSTAR":0.000719014,"MEAN_MOTION_DOT":0.00140193,"MEAN_MOTION_DDOT":0},{"OBJECT_NAME":"STARLINK-37188","OBJECT_ID":"2026-063AA","EPOCH":"2026-04-17T22:31:48.919296","MEAN_MOTION":15.80849904,"ECCENTRICITY":0.000158,"INCLINATION":97.285,"RA_OF_ASC_NODE":249.7093,"ARG_OF_PERICENTER":85.3747,"MEAN_ANOMALY":274.7701,"EPHEMERIS_TYPE":0,"CLASSIFICATION_TYPE":"U","NORAD_CAT_ID":68404,"ELEMENT_SET_NO":999,"REV_AT_EPOCH":382,"BSTAR":0.0005001295,"MEAN_MOTION_DOT":0.00096878,"MEAN_MOTION_DDOT":0},{"OBJECT_NAME":"SHIYAN-33","OBJECT_ID":"2026-064A","EPOCH":"2026-04-20T04:40:52.500576","MEAN_MOTION":15.23366587,"ECCENTRICITY":0.00151692,"INCLINATION":97.4637,"RA_OF_ASC_NODE":186.0158,"ARG_OF_PERICENTER":145.8233,"MEAN_ANOMALY":214.3984,"EPHEMERIS_TYPE":0,"CLASSIFICATION_TYPE":"U","NORAD_CAT_ID":68405,"ELEMENT_SET_NO":999,"REV_AT_EPOCH":366,"BSTAR":0.00015582681,"MEAN_MOTION_DOT":3.643e-5,"MEAN_MOTION_DDOT":0},{"OBJECT_NAME":"LPNTSAT-001 (IOD-1)","OBJECT_ID":"2026-065A","EPOCH":"2026-04-17T15:30:53.127936","MEAN_MOTION":15.18333868,"ECCENTRICITY":0.00161226,"INCLINATION":97.4099,"RA_OF_ASC_NODE":349.4201,"ARG_OF_PERICENTER":210.2902,"MEAN_ANOMALY":149.7402,"EPHEMERIS_TYPE":0,"CLASSIFICATION_TYPE":"U","NORAD_CAT_ID":68408,"ELEMENT_SET_NO":999,"REV_AT_EPOCH":307,"BSTAR":8.7535433e-5,"MEAN_MOTION_DOT":1.734e-5,"MEAN_MOTION_DDOT":0},{"OBJECT_NAME":"LPNTSAT-002 (IOD-2)","OBJECT_ID":"2026-065B","EPOCH":"2026-04-17T15:30:01.454688","MEAN_MOTION":15.1844968,"ECCENTRICITY":0.00132596,"INCLINATION":97.4087,"RA_OF_ASC_NODE":349.4181,"ARG_OF_PERICENTER":204.5317,"MEAN_ANOMALY":155.5288,"EPHEMERIS_TYPE":0,"CLASSIFICATION_TYPE":"U","NORAD_CAT_ID":68409,"ELEMENT_SET_NO":999,"REV_AT_EPOCH":305,"BSTAR":0.00020053886,"MEAN_MOTION_DOT":4.071e-5,"MEAN_MOTION_DDOT":0},{"OBJECT_NAME":"XINZHENGCHENG-01","OBJECT_ID":"2026-066A","EPOCH":"2026-04-20T06:37:57.326016","MEAN_MOTION":14.88354019,"ECCENTRICITY":0.0027648,"INCLINATION":84.963,"RA_OF_ASC_NODE":264.5861,"ARG_OF_PERICENTER":95.018,"MEAN_ANOMALY":265.42,"EPHEMERIS_TYPE":0,"CLASSIFICATION_TYPE":"U","NORAD_CAT_ID":68412,"ELEMENT_SET_NO":999,"REV_AT_EPOCH":311,"BSTAR":3.6124814e-5,"MEAN_MOTION_DOT":3.67e-6,"MEAN_MOTION_DDOT":0},{"OBJECT_NAME":"TRANSPORTER-16 OBJECT A","OBJECT_ID":"2026-067A","EPOCH":"2026-04-17T19:39:59.511456","MEAN_MOTION":15.18682962,"ECCENTRICITY":0.0004046,"INCLINATION":97.4505,"RA_OF_ASC_NODE":67.2087,"ARG_OF_PERICENTER":107.6321,"MEAN_ANOMALY":252.5355,"EPHEMERIS_TYPE":0,"CLASSIFICATION_TYPE":"U","NORAD_CAT_ID":68416,"ELEMENT_SET_NO":999,"REV_AT_EPOCH":278,"BSTAR":0.0002538104,"MEAN_MOTION_DOT":5.196e-5,"MEAN_MOTION_DDOT":0},{"OBJECT_NAME":"JACK-002","OBJECT_ID":"2026-067B","EPOCH":"2026-04-17T19:41:00.489120","MEAN_MOTION":15.18618492,"ECCENTRICITY":0.00038926,"INCLINATION":97.4526,"RA_OF_ASC_NODE":67.212,"ARG_OF_PERICENTER":109.6101,"MEAN_ANOMALY":250.5554,"EPHEMERIS_TYPE":0,"CLASSIFICATION_TYPE":"U","NORAD_CAT_ID":68417,"ELEMENT_SET_NO":999,"REV_AT_EPOCH":278,"BSTAR":0.00024097368,"MEAN_MOTION_DOT":4.92e-5,"MEAN_MOTION_DDOT":0},{"OBJECT_NAME":"OPTISAT","OBJECT_ID":"2026-067C","EPOCH":"2026-04-17T19:42:13.698432","MEAN_MOTION":15.1851925,"ECCENTRICITY":0.00038541,"INCLINATION":97.4543,"RA_OF_ASC_NODE":67.2154,"ARG_OF_PERICENTER":121.0306,"MEAN_ANOMALY":239.1307,"EPHEMERIS_TYPE":0,"CLASSIFICATION_TYPE":"U","NORAD_CAT_ID":68418,"ELEMENT_SET_NO":999,"REV_AT_EPOCH":278,"BSTAR":0.00016026295,"MEAN_MOTION_DOT":3.24e-5,"MEAN_MOTION_DDOT":0},{"OBJECT_NAME":"TRANSPORTER-16 OBJECT D","OBJECT_ID":"2026-067D","EPOCH":"2026-04-17T19:42:00.927648","MEAN_MOTION":15.18529535,"ECCENTRICITY":0.00034302,"INCLINATION":97.45,"RA_OF_ASC_NODE":67.2061,"ARG_OF_PERICENTER":101.1674,"MEAN_ANOMALY":258.9946,"EPHEMERIS_TYPE":0,"CLASSIFICATION_TYPE":"U","NORAD_CAT_ID":68419,"ELEMENT_SET_NO":999,"REV_AT_EPOCH":278,"BSTAR":9.8232353e-5,"MEAN_MOTION_DOT":1.96e-5,"MEAN_MOTION_DDOT":0},{"OBJECT_NAME":"ERMIS-2","OBJECT_ID":"2026-067E","EPOCH":"2026-04-17T19:41:35.119104","MEAN_MOTION":15.18633539,"ECCENTRICITY":0.00036304,"INCLINATION":97.4448,"RA_OF_ASC_NODE":67.1953,"ARG_OF_PERICENTER":91.8754,"MEAN_ANOMALY":268.2896,"EPHEMERIS_TYPE":0,"CLASSIFICATION_TYPE":"U","NORAD_CAT_ID":68420,"ELEMENT_SET_NO":999,"REV_AT_EPOCH":278,"BSTAR":0.00034959337,"MEAN_MOTION_DOT":7.174e-5,"MEAN_MOTION_DDOT":0},{"OBJECT_NAME":"TRANSPORTER-16 OBJECT F","OBJECT_ID":"2026-067F","EPOCH":"2026-04-17T19:45:01.340352","MEAN_MOTION":15.18349018,"ECCENTRICITY":0.00029359,"INCLINATION":97.4475,"RA_OF_ASC_NODE":67.198,"ARG_OF_PERICENTER":93.6919,"MEAN_ANOMALY":266.4651,"EPHEMERIS_TYPE":0,"CLASSIFICATION_TYPE":"U","NORAD_CAT_ID":68421,"ELEMENT_SET_NO":999,"REV_AT_EPOCH":278,"BSTAR":0.00015777427,"MEAN_MOTION_DOT":3.173e-5,"MEAN_MOTION_DDOT":0}]
